[{"OBJECT_NAME":"TRANSPORTER-16 OBJECT M","OBJECT_ID":"2026-067M","EPOCH":"2026-04-17T19:46:41.741472","MEAN_MOTION":15.18328004,"ECCENTRICITY":0.00024216,"INCLINATION":97.4509,"RA_OF_ASC_NODE":67.2039,"ARG_OF_PERICENTER":133.7783,"MEAN_ANOMALY":226.3652,"EPHEMERIS_TYPE":0,"CLASSIFICATION_TYPE":"U","NORAD_CAT_ID":68427,"ELEMENT_SET_NO":999,"REV_AT_EPOCH":278,"BSTAR":0.00032606578,"MEAN_MOTION_DOT":6.627e-5,"MEAN_MOTION_DDOT":0},{"OBJECT_NAME":"OUT OF THE BOX (OOTB)","OBJECT_ID":"2026-067N","EPOCH":"2026-04-17T19:50:19.081536","MEAN_MOTION":15.18042703,"ECCENTRICITY":0.00018997,"INCLINATION":97.4529,"RA_OF_ASC_NODE":67.2056,"ARG_OF_PERICENTER":142.8468,"MEAN_ANOMALY":217.2898,"EPHEMERIS_TYPE":0,"CLASSIFICATION_TYPE":"U","NORAD_CAT_ID":68428,"ELEMENT_SET_NO":999,"REV_AT_EPOCH":278,"BSTAR":0.00015065227,"MEAN_MOTION_DOT":2.999e-5,"MEAN_MOTION_DDOT":0},{"OBJECT_NAME":"TRANSPORTER-16 OBJECT P","OBJECT_ID":"2026-067P","EPOCH":"2026-04-17T19:51:33.611904","MEAN_MOTION":15.18088191,"ECCENTRICITY":0.00013805,"INCLINATION":97.4477,"RA_OF_ASC_NODE":67.1898,"ARG_OF_PERICENTER":184.3779,"MEAN_ANOMALY":175.7444,"EPHEMERIS_TYPE":0,"CLASSIFICATION_TYPE":"U","NORAD_CAT_ID":68429,"ELEMENT_SET_NO":999,"REV_AT_EPOCH":278,"BSTAR":0.00042938497,"MEAN_MOTION_DOT":8.689e-5,"MEAN_MOTION_DDOT":0},{"OBJECT_NAME":"TRANSPORTER-16 OBJECT Q","OBJECT_ID":"2026-067Q","EPOCH":"2026-04-17T19:47:51.299520","MEAN_MOTION":15.18240827,"ECCENTRICITY":0.00020144,"INCLINATION":97.4463,"RA_OF_ASC_NODE":67.1926,"ARG_OF_PERICENTER":105.2668,"MEAN_ANOMALY":254.8789,"EPHEMERIS_TYPE":0,"CLASSIFICATION_TYPE":"U","NORAD_CAT_ID":68430,"ELEMENT_SET_NO":999,"REV_AT_EPOCH":278,"BSTAR":0.00025934291,"MEAN_MOTION_DOT":5.243e-5,"MEAN_MOTION_DDOT":0},{"OBJECT_NAME":"DISCO-2","OBJECT_ID":"2026-067R","EPOCH":"2026-04-17T19:49:05.875680","MEAN_MOTION":15.18175708,"ECCENTRICITY":0.00023586,"INCLINATION":97.4563,"RA_OF_ASC_NODE":67.2138,"ARG_OF_PERICENTER":151.7972,"MEAN_ANOMALY":208.339,"EPHEMERIS_TYPE":0,"CLASSIFICATION_TYPE":"U","NORAD_CAT_ID":68431,"ELEMENT_SET_NO":999,"REV_AT_EPOCH":278,"BSTAR":0.00030838239,"MEAN_MOTION_DOT":6.236e-5,"MEAN_MOTION_DDOT":0},{"OBJECT_NAME":"TRANSPORTER-16 OBJECT S","OBJECT_ID":"2026-067S","EPOCH":"2026-04-18T13:17:02.542560","MEAN_MOTION":15.17929911,"ECCENTRICITY":0.00014985,"INCLINATION":97.4519,"RA_OF_ASC_NODE":67.9155,"ARG_OF_PERICENTER":175.1481,"MEAN_ANOMALY":184.9767,"EPHEMERIS_TYPE":0,"CLASSIFICATION_TYPE":"U","NORAD_CAT_ID":68432,"ELEMENT_SET_NO":999,"REV_AT_EPOCH":289,"BSTAR":0.00025088216,"MEAN_MOTION_DOT":5.024e-5,"MEAN_MOTION_DDOT":0},{"OBJECT_NAME":"T.MICROSAT-22","OBJECT_ID":"2026-067T","EPOCH":"2026-04-17T20:11:48.981696","MEAN_MOTION":15.16816835,"ECCENTRICITY":0.00038468,"INCLINATION":97.4533,"RA_OF_ASC_NODE":67.1864,"ARG_OF_PERICENTER":273.6537,"MEAN_ANOMALY":86.4256,"EPHEMERIS_TYPE":0,"CLASSIFICATION_TYPE":"U","NORAD_CAT_ID":68433,"ELEMENT_SET_NO":999,"REV_AT_EPOCH":278,"BSTAR":0.00018704778,"MEAN_MOTION_DOT":3.61e-5,"MEAN_MOTION_DDOT":0},{"OBJECT_NAME":"TRANSPORTER-16 OBJECT U","OBJECT_ID":"2026-067U","EPOCH":"2026-04-17T19:48:03.401568","MEAN_MOTION":15.1817141,"ECCENTRICITY":0.00024306,"INCLINATION":97.454,"RA_OF_ASC_NODE":67.2095,"ARG_OF_PERICENTER":133.3221,"MEAN_ANOMALY":226.8216,"EPHEMERIS_TYPE":0,"CLASSIFICATION_TYPE":"U","NORAD_CAT_ID":68434,"ELEMENT_SET_NO":999,"REV_AT_EPOCH":278,"BSTAR":0.00014895186,"MEAN_MOTION_DOT":2.976e-5,"MEAN_MOTION_DDOT":0},{"OBJECT_NAME":"ION SCV ASTOUNDING ALEXANDRA","OBJECT_ID":"2026-067V","EPOCH":"2026-04-17T21:32:17.125152","MEAN_MOTION":15.17621937,"ECCENTRICITY":8.334e-5,"INCLINATION":97.4507,"RA_OF_ASC_NODE":67.2601,"ARG_OF_PERICENTER":229.8069,"MEAN_ANOMALY":130.3092,"EPHEMERIS_TYPE":0,"CLASSIFICATION_TYPE":"U","NORAD_CAT_ID":68435,"ELEMENT_SET_NO":999,"REV_AT_EPOCH":279,"BSTAR":0.00011207607,"MEAN_MOTION_DOT":2.187e-5,"MEAN_MOTION_DDOT":0},{"OBJECT_NAME":"TRANSPORTER-16 OBJECT W","OBJECT_ID":"2026-067W","EPOCH":"2026-04-17T21:33:49.419360","MEAN_MOTION":15.17563596,"ECCENTRICITY":8.072e-5,"INCLINATION":97.4503,"RA_OF_ASC_NODE":67.2585,"ARG_OF_PERICENTER":222.065,"MEAN_ANOMALY":138.0522,"EPHEMERIS_TYPE":0,"CLASSIFICATION_TYPE":"U","NORAD_CAT_ID":68436,"ELEMENT_SET_NO":999,"REV_AT_EPOCH":279,"BSTAR":0.00015605928,"MEAN_MOTION_DOT":3.066e-5,"MEAN_MOTION_DDOT":0},{"OBJECT_NAME":"TRANSPORTER-16 OBJECT X","OBJECT_ID":"2026-067X","EPOCH":"2026-04-17T15:08:40.664544","MEAN_MOTION":15.18014399,"ECCENTRICITY":7.548e-5,"INCLINATION":97.447,"RA_OF_ASC_NODE":66.9919,"ARG_OF_PERICENTER":191.4753,"MEAN_ANOMALY":168.6464,"EPHEMERIS_TYPE":0,"CLASSIFICATION_TYPE":"U","NORAD_CAT_ID":68437,"ELEMENT_SET_NO":999,"REV_AT_EPOCH":275,"BSTAR":0.00041900149,"MEAN_MOTION_DOT":8.459e-5,"MEAN_MOTION_DDOT":0},{"OBJECT_NAME":"TRANSPORTER-16 OBJECT Y","OBJECT_ID":"2026-067Y","EPOCH":"2026-04-17T19:53:36.467520","MEAN_MOTION":15.18058991,"ECCENTRICITY":9.944e-5,"INCLINATION":97.4485,"RA_OF_ASC_NODE":67.1916,"ARG_OF_PERICENTER":216.4967,"MEAN_ANOMALY":143.6199,"EPHEMERIS_TYPE":0,"CLASSIFICATION_TYPE":"U","NORAD_CAT_ID":68438,"ELEMENT_SET_NO":999,"REV_AT_EPOCH":278,"BSTAR":0.0006610197,"MEAN_MOTION_DOT":0.0001341,"MEAN_MOTION_DDOT":0},{"OBJECT_NAME":"TRANSPORTER-16 OBJECT Z","OBJECT_ID":"2026-067Z","EPOCH":"2026-04-17T19:56:37.156704","MEAN_MOTION":15.1784677,"ECCENTRICITY":3.378e-5,"INCLINATION":97.4482,"RA_OF_ASC_NODE":67.1878,"ARG_OF_PERICENTER":280.6444,"MEAN_ANOMALY":79.4752,"EPHEMERIS_TYPE":0,"CLASSIFICATION_TYPE":"U","NORAD_CAT_ID":68439,"ELEMENT_SET_NO":999,"REV_AT_EPOCH":278,"BSTAR":0.0005212176,"MEAN_MOTION_DOT":0.00010491,"MEAN_MOTION_DDOT":0},{"OBJECT_NAME":"TRANSPORTER-16 OBJECT AA","OBJECT_ID":"2026-067AA","EPOCH":"2026-04-17T10:26:09.147840","MEAN_MOTION":15.17943236,"ECCENTRICITY":3.537e-5,"INCLINATION":97.4478,"RA_OF_ASC_NODE":66.7989,"ARG_OF_PERICENTER":279.0473,"MEAN_ANOMALY":81.0721,"EPHEMERIS_TYPE":0,"CLASSIFICATION_TYPE":"U","NORAD_CAT_ID":68440,"ELEMENT_SET_NO":999,"REV_AT_EPOCH":272,"BSTAR":0.00060111623,"MEAN_MOTION_DOT":0.00012146,"MEAN_MOTION_DDOT":0},{"OBJECT_NAME":"TRANSPORTER-16 OBJECT AB","OBJECT_ID":"2026-067AB","EPOCH":"2026-04-17T19:59:58.562016","MEAN_MOTION":15.17752058,"ECCENTRICITY":0.00010585,"INCLINATION":97.445,"RA_OF_ASC_NODE":67.1823,"ARG_OF_PERICENTER":316.3037,"MEAN_ANOMALY":43.8113,"EPHEMERIS_TYPE":0,"CLASSIFICATION_TYPE":"U","NORAD_CAT_ID":68441,"ELEMENT_SET_NO":999,"REV_AT_EPOCH":278,"BSTAR":0.0001259848,"MEAN_MOTION_DOT":2.476e-5,"MEAN_MOTION_DDOT":0},{"OBJECT_NAME":"TRANSPORTER-16 OBJECT AC","OBJECT_ID":"2026-067AC","EPOCH":"2026-04-17T20:06:37.222848","MEAN_MOTION":15.17125968,"ECCENTRICITY":0.00024937,"INCLINATION":97.45,"RA_OF_ASC_NODE":67.1837,"ARG_OF_PERICENTER":286.6897,"MEAN_ANOMALY":73.4062,"EPHEMERIS_TYPE":0,"CLASSIFICATION_TYPE":"U","NORAD_CAT_ID":68442,"ELEMENT_SET_NO":999,"REV_AT_EPOCH":278,"BSTAR":0.00020318101,"MEAN_MOTION_DOT":3.962e-5,"MEAN_MOTION_DDOT":0}]
